{
  "type": "FeatureCollection",
  "features": [
    {
      "type": "Feature",
      "properties": {
        "norad_id": 66574,
        "name": "STARLINK-35812",
        "group": "last-30-days",
        "lat": -17.572439644574217,
        "lon": -85.06857737117268,
        "alt_km": 400.38715024748944,
        "timestamp": "2025-12-20T14:38:00.687085+00:00",
        "meta_object_name": "STARLINK-35812",
        "meta_object_id": "2025-268T",
        "meta_epoch": "2025-12-20T06:00:02.999808",
        "meta_mean_motion": 15.5416703,
        "meta_eccentricity": 0.00012777,
        "meta_inclination": 43.0007,
        "meta_ra_of_asc_node": 77.1828,
        "meta_arg_of_pericenter": 266.6289,
        "meta_mean_anomaly": 83.4554,
        "meta_ephemeris_type": 0,
        "meta_classification_type": "U",
        "meta_norad_cat_id": 66574,
        "meta_element_set_no": 999,
        "meta_rev_at_epoch": 587,
        "meta_bstar": 0.038255667,
        "meta_mean_motion_dot": 0.02874408,
        "meta_mean_motion_ddot": 0,
        "tle_line1": "1 66574U 25268T   25354.25003472  .02874408  00000+0  38256-1 0  9990",
        "tle_line2": "2 66574  43.0007  77.1828 0001277 266.6289  83.4554 15.54167030  5874"
      },
      "geometry": {
        "type": "Point",
        "coordinates": [
          -85.06857737117268,
          -17.572439644574217
        ]
      }
    },
    {
      "type": "Feature",
      "properties": {
        "norad_id": 66575,
        "name": "STARLINK-35810",
        "group": "last-30-days",
        "lat": -18.79528499777925,
        "lon": -83.51948174897704,
        "alt_km": 400.4431765289055,
        "timestamp": "2025-12-20T14:38:00.687097+00:00",
        "meta_object_name": "STARLINK-35810",
        "meta_object_id": "2025-268U",
        "meta_epoch": "2025-12-20T06:00:02.999808",
        "meta_mean_motion": 15.54168159,
        "meta_eccentricity": 0.00013249,
        "meta_inclination": 43.0006,
        "meta_ra_of_asc_node": 77.1781,
        "meta_arg_of_pericenter": 263.6893,
        "meta_mean_anomaly": 88.3132,
        "meta_ephemeris_type": 0,
        "meta_classification_type": "U",
        "meta_norad_cat_id": 66575,
        "meta_element_set_no": 999,
        "meta_rev_at_epoch": 587,
        "meta_bstar": 0.038207133,
        "meta_mean_motion_dot": 0.02870368,
        "meta_mean_motion_ddot": 0,
        "tle_line1": "1 66575U 25268U   25354.25003472  .02870368  00000+0  38207-1 0  9998",
        "tle_line2": "2 66575  43.0006  77.1781 0001324 263.6893  88.3132 15.54168159  5872"
      },
      "geometry": {
        "type": "Point",
        "coordinates": [
          -83.51948174897704,
          -18.79528499777925
        ]
      }
    },
    {
      "type": "Feature",
      "properties": {
        "norad_id": 66576,
        "name": "STARLINK-35814",
        "group": "last-30-days",
        "lat": -20.00326633004246,
        "lon": -81.95127677749572,
        "alt_km": 400.53020094376006,
        "timestamp": "2025-12-20T14:38:00.687107+00:00",
        "meta_object_name": "STARLINK-35814",
        "meta_object_id": "2025-268V",
        "meta_epoch": "2025-12-20T06:00:02.999808",
        "meta_mean_motion": 15.54153375,
        "meta_eccentricity": 0.00011439,
        "meta_inclination": 43.0009,
        "meta_ra_of_asc_node": 77.1726,
        "meta_arg_of_pericenter": 254.1699,
        "meta_mean_anomaly": 99.7524,
        "meta_ephemeris_type": 0,
        "meta_classification_type": "U",
        "meta_norad_cat_id": 66576,
        "meta_element_set_no": 999,
        "meta_rev_at_epoch": 587,
        "meta_bstar": 0.038594483,
        "meta_mean_motion_dot": 0.02901812,
        "meta_mean_motion_ddot": 0,
        "tle_line1": "1 66576U 25268V   25354.25003472  .02901812  00000+0  38594-1 0  9997",
        "tle_line2": "2 66576  43.0009  77.1726 0001143 254.1699  99.7524 15.54153375  5878"
      },
      "geometry": {
        "type": "Point",
        "coordinates": [
          -81.95127677749572,
          -20.00326633004246
        ]
      }
    },
    {
      "type": "Feature",
      "properties": {
        "norad_id": 66577,
        "name": "STARLINK-35815",
        "group": "last-30-days",
        "lat": -14.821412864647169,
        "lon": -88.42676903941229,
        "alt_km": 414.89119185209074,
        "timestamp": "2025-12-20T14:38:00.687118+00:00",
        "meta_object_name": "STARLINK-35815",
        "meta_object_id": "2025-268W",
        "meta_epoch": "2025-12-19T16:07:37.596288",
        "meta_mean_motion": 15.50777469,
        "meta_eccentricity": 0.00018642,
        "meta_inclination": 43.0013,
        "meta_ra_of_asc_node": 80.5656,
        "meta_arg_of_pericenter": 139.1198,
        "meta_mean_anomaly": 220.9802,
        "meta_ephemeris_type": 0,
        "meta_classification_type": "U",
        "meta_norad_cat_id": 66577,
        "meta_element_set_no": 999,
        "meta_rev_at_epoch": 570,
        "meta_bstar": 0.0010498154,
        "meta_mean_motion_dot": 0.00062177,
        "meta_mean_motion_ddot": 0,
        "tle_line1": "1 66577U 25268W   25353.67196292  .00062177  00000+0  10498-2 0  9990",
        "tle_line2": "2 66577  43.0013  80.5656 0001864 139.1198 220.9802 15.50777469  5701"
      },
      "geometry": {
        "type": "Point",
        "coordinates": [
          -88.42676903941229,
          -14.821412864647169
        ]
      }
    },
    {
      "type": "Feature",
      "properties": {
        "norad_id": 66578,
        "name": "STARLINK-35743",
        "group": "last-30-days",
        "lat": -16.05528799778338,
        "lon": -86.93863738833393,
        "alt_km": 415.17831261957417,
        "timestamp": "2025-12-20T14:38:00.687129+00:00",
        "meta_object_name": "STARLINK-35743",
        "meta_object_id": "2025-268X",
        "meta_epoch": "2025-12-19T13:01:43.293216",
        "meta_mean_motion": 15.50763067,
        "meta_eccentricity": 6.51e-05,
        "meta_inclination": 42.9979,
        "meta_ra_of_asc_node": 81.316,
        "meta_arg_of_pericenter": 284.5171,
        "meta_mean_anomaly": 75.5617,
        "meta_ephemeris_type": 0,
        "meta_classification_type": "U",
        "meta_norad_cat_id": 66578,
        "meta_element_set_no": 999,
        "meta_rev_at_epoch": 568,
        "meta_bstar": 0.0024134,
        "meta_mean_motion_dot": 0.0014484,
        "meta_mean_motion_ddot": 0,
        "tle_line1": "1 66578U 25268X   25353.54286219  .00144840  00000+0  24134-2 0  9996",
        "tle_line2": "2 66578  42.9979  81.3160 0000651 284.5171  75.5617 15.50763067  5683"
      },
      "geometry": {
        "type": "Point",
        "coordinates": [
          -86.93863738833393,
          -16.05528799778338
        ]
      }
    },
    {
      "type": "Feature",
      "properties": {
        "norad_id": 66579,
        "name": "STARLINK-35868",
        "group": "last-30-days",
        "lat": -23.539713423889907,
        "lon": -77.08926044258948,
        "alt_km": 400.72312833118576,
        "timestamp": "2025-12-20T14:38:00.687140+00:00",
        "meta_object_name": "STARLINK-35868",
        "meta_object_id": "2025-268Y",
        "meta_epoch": "2025-12-20T06:00:02.999808",
        "meta_mean_motion": 15.5414873,
        "meta_eccentricity": 0.00012663,
        "meta_inclination": 43.0008,
        "meta_ra_of_asc_node": 77.1582,
        "meta_arg_of_pericenter": 256.4914,
        "meta_mean_anomaly": 103.1823,
        "meta_ephemeris_type": 0,
        "meta_classification_type": "U",
        "meta_norad_cat_id": 66579,
        "meta_element_set_no": 999,
        "meta_rev_at_epoch": 587,
        "meta_bstar": 0.038733638,
        "meta_mean_motion_dot": 0.02913063,
        "meta_mean_motion_ddot": 0,
        "tle_line1": "1 66579U 25268Y   25354.25003472  .02913063  00000+0  38734-1 0  9997",
        "tle_line2": "2 66579  43.0008  77.1582 0001266 256.4914 103.1823 15.54148730  5872"
      },
      "geometry": {
        "type": "Point",
        "coordinates": [
          -77.08926044258948,
          -23.539713423889907
        ]
      }
    },
    {
      "type": "Feature",
      "properties": {
        "norad_id": 66580,
        "name": "STARLINK-35872",
        "group": "last-30-days",
        "lat": -18.876004499788493,
        "lon": -83.41555142355341,
        "alt_km": 413.76285704097063,
        "timestamp": "2025-12-20T14:38:00.687150+00:00",
        "meta_object_name": "STARLINK-35872",
        "meta_object_id": "2025-268Z",
        "meta_epoch": "2025-12-19T14:33:26.953344",
        "meta_mean_motion": 15.50873267,
        "meta_eccentricity": 0.0002511,
        "meta_inclination": 42.9993,
        "meta_ra_of_asc_node": 80.9317,
        "meta_arg_of_pericenter": 162.1716,
        "meta_mean_anomaly": 197.9233,
        "meta_ephemeris_type": 0,
        "meta_classification_type": "U",
        "meta_norad_cat_id": 66580,
        "meta_element_set_no": 999,
        "meta_rev_at_epoch": 569,
        "meta_bstar": 0.0027444,
        "meta_mean_motion_dot": 0.00165853,
        "meta_mean_motion_ddot": 0,
        "tle_line1": "1 66580U 25268Z   25353.60656196  .00165853  00000+0  27444-2 0  9995",
        "tle_line2": "2 66580  42.9993  80.9317 0002511 162.1716 197.9233 15.50873267  5692"
      },
      "geometry": {
        "type": "Point",
        "coordinates": [
          -83.41555142355341,
          -18.876004499788493
        ]
      }
    }
  ]
}